STARLINK-5098           
1 54013U 22125BB  22294.58334491  .00077116  00000+0  54929-3 0  9994
2 54013  53.2184  14.2652 0002740  17.8146  17.5292 15.73178289  1309
STARLINK-5116           
1 54014U 22125BC  22294.58334491 -.00013625  00000+0 -92556-4 0  9991
2 54014  53.2188  14.2656 0002681  17.4217  18.5212 15.73256912  1300
STARLINK-5055           
1 54015U 22125BD  22294.58334491  .00079897  00000+0  56863-3 0  9993
2 54015  53.2185  14.2606 0002754  28.7007   9.0713 15.73183193  1307
FALCON 9 DEB            
1 54016U 22125BE  22294.39947650  .00264692  38521-4  66317-3 0  9998
2 54016  53.2338  13.8663 0010874 350.8529   9.2301 15.95163392  2776
FALCON 9 DEB            
1 54017U 22125BF  22294.51767213  .00331612  55377-4  76495-3 0  9991
2 54017  53.2311  13.1759 0009177 353.2048   6.8856 15.96666205  2796
FALCON 9 DEB            
1 54018U 22125BG  22294.44237105  .00358430  64277-4  74969-3 0  9996
2 54018  53.2258  13.4018 0010992 334.0108  26.0370 15.98377122  2782
FALCON 9 DEB            
1 54019U 22125BH  22294.50379534  .00328814  55501-4  70020-3 0  9994
2 54019  53.2239  13.0690 0008497 325.1022  34.9451 15.98119425  2796
CENTISPACE-1 S5         
1 54020U 22126A   22294.51257536  .00000604  00000+0  16998-3 0  9992
2 54020  54.9974 131.4501 0013200 327.1183  32.8987 14.57920089  2045
CENTISPACE-1 S6         
1 54021U 22126B   22294.51026452  .00000643  00000+0  17761-3 0  9996
2 54021  54.9973 131.4379 0015069 326.6619  33.3416 14.58165275  2032
CZ-11H R/B              
1 54022U 22126C   22294.26585117  .00021128  00000+0  36816-3 0  9990
2 54022  56.1520 129.6852 0338850 339.5286  19.2267 15.06397991  2065
OTB-3-GAZELLE           
1 54023U 22127A   22294.41702540 -.00000043  00000+0  00000+0 0  9996
2 54023  98.3148 293.4311 0012307 257.5921 102.3890 14.41644948  1971
ELECTRON KICK STAGE R/B 
1 54024U 22127B   22294.60584734  .00003620  00000+0  49270-3 0  9990
2 54024  98.2936 294.2564 0141343 338.2124  21.3088 14.72699203  2035
ELECTRON R/B            
1 54025U 22127C   22294.47412103  .00126284  54727-5  12271-2 0  9999
2 54025  98.3337 295.2274 0343040 171.5211 189.2045 15.17727795  2084
GALAXY 33               
1 54026U 22128A   22293.74888237 -.00000134  00000+0  00000+0 0  9994
2 54026   0.4017 196.6711 0352830 174.1840 150.8526  1.05938949   340
GALAXY 34               
1 54027U 22128B   22294.07079223 -.00000105  00000+0  00000+0 0  9997
2 54027   6.5916 190.5035 3642556 182.7113   1.8529  1.60832320   363
FALCON 9 R/B            
1 54028U 22128C   22294.45801599  .00002486  00000+0  76552-3 0  9991
2 54028  26.8522 185.5993 5936116 191.3475 144.9697  4.11994754   517
ASO-S                   
1 54029U 22129A   22294.44804646 -.00000008  00000+0  91018-5 0  9993
2 54029  98.2685 299.7489 0014147 225.2037 134.8039 14.50857692  1811
CZ-2D R/B               
1 54030U 22129B   22294.48329293  .00000327  00000+0  86613-4 0  9996
2 54030  98.1948 299.6832 0019626  77.8347 282.5046 14.54805332  1825
COSMOS 2559 [GLONASS-K] 
1 54031U 22130A   22293.69266686 -.00000068  00000+0  00000+0 0  9991
2 54031  64.7808   1.2992 0001943 327.3231 162.0911  2.12838435   229
FREGAT R/B              
1 54032U 22130B   22286.02640266 -.00000089  00000+0  00000+0 0  9994
2 54032  64.7735   1.5414 0026318 173.8175 185.0931  2.11041190    45
ANGOSAT 2               
1 54033U 22131A   22294.80000000  .00000084  00000+0  00000+0 0  9991
2 54033   0.0210 278.6100 0001924 123.5410 320.7040  0.99176300   108
BLOCK DM-SL R/B         
1 54034U 22131B   22293.87693990 -.00000118  00000+0  00000+0 0  9993
2 54034   0.1540 285.1011 0081368 172.6344 263.2207  0.97749008    83
HJ-2E                   
1 54035U 22132A   22294.56281238  .00008901  00000+0  37241-3 0  9998
2 54035  97.3954 299.9964 0011626 240.3634 276.8266 15.23748992  1303
2022-132B               
1 54036U 22132B   22294.58154682  .00110310  00000+0  33808-2 0  9995
2 54036  97.3564 300.0839 0033352 294.7630 217.1697 15.32800793  1310
2022-132C               
1 54037U 22132C   22294.44886606  .00012162  00000+0  11817-2 0  9991
2 54037  97.6522 299.5616 0189535 143.9094 217.5019 14.80139618  1266
2022-132D               
1 54038U 22132D   22294.46014460  .00028016  00000+0  13794-2 0  9996
2 54038  97.5904 299.9453 0099595 203.7049 155.9301 15.13604668  1284
CZ-2C R/B               
1 54039U 22132E   22294.60540669  .00003864  00000+0  20087-3 0  9996
2 54039  97.2523 299.5944 0047569 180.6723 319.6882 15.15651092  1307
2022-132F               
1 54040U 22132F   22294.49636463  .00028296  00000+0  15787-2 0  9999
2 54040  97.1611 299.5060 0123257 194.3980 165.3656 15.07164497  1282
2022-132G               
1 54041U 22132G   22294.46730397  .00014295  00000+0  12383-2 0  9991
2 54041  97.1929 299.2867 0151134 140.5604 220.6553 14.88727544  1263
2022-133A               
1 54042U 22133A   22294.29127044  .00022905  00000+0  90110-3 0  9995
2 54042  34.9997 245.8317 0008981 325.3098 184.7865 15.24713811   994
2022-133B               
1 54043U 22133B   22293.94413715 -.00080390  00000+0 -32625-2 0  9990
2 54043  34.9904 248.0135 0008310 340.2837  63.3118 15.24074123   943
2022-133C               
1 54044U 22133C   22294.35290226  .00023883  00000+0  93004-3 0  9998
2 54044  35.0044 245.4161 0009197 331.7826 164.6549 15.25044660  1003
2022-133D               
1 54045U 22133D   22294.35213560  .00017460  00000+0  67842-3 0  9990
2 54045  34.9979 245.4156 0009256 343.4393 152.8468 15.25165817  1005
2022-133E               
1 54046U 22133E   22294.29241067  .00013129  00000+0  52340-3 0  9992
2 54046  34.9999 245.8368 0007789 321.7421 188.2618 15.24365967   991
2022-134A               
1 54048U 22134A   22291.90325934  .00000036  00000+0  10000-3 0  9996
2 54048  26.2796 300.2678 8013508 181.0844 331.5595  1.33348430    46
2022-134B               
1 54049U 22134B   22294.18542388  .00038311  00000+0  23127+0 0  9991
2 54049  26.8390 299.8615 8046933 181.7700 352.8881  1.34287912    78
COSMOS 2560             
1 54050U 22135A   22294.55188703  .00133843  00000+0  74402-3 0  9994
2 54050  96.3472  22.0929 0011994 222.9359 269.8642 15.79017330   897
2022-137A               
1 54109U 22137A   22294.88156479 -.00000090  00000+0  00000+0 0  9999
2 54109  97.0771  14.9581 0009151 268.7815 202.6022 15.51169244    05
2022-137B               
1 54110U 22137B   22294.88156736 -.00000090  00000+0  00000+0 0  9997
2 54110  97.0759  14.9542 0009054 256.6346 214.7888 15.51293505    10
2022-137C               
1 54111U 22137C   22294.87749534 -.00000632  19960-5  00000+0 0  9994
2 54111  97.0828  14.9577 0160828  71.7128  22.2904 15.92516830    12
